OBJECT_NAME,OBJECT_ID,EPOCH,MEAN_MOTION,ECCENTRICITY,INCLINATION,RA_OF_ASC_NODE,ARG_OF_PERICENTER,MEAN_ANOMALY,EPHEMERIS_TYPE,CLASSIFICATION_TYPE,NORAD_CAT_ID,ELEMENT_SET_NO,REV_AT_EPOCH,BSTAR,MEAN_MOTION_DOT,MEAN_MOTION_DDOT
STARLINK-1301,2020-019B,2026-06-19T19:38:51.824832,15.82679336,.000209,53.0353,317.4020,329.1977,30.8922,0,U,45361,999,34667,.47916E-3,.103398E-2,0
STARLINK-1262,2020-019G,2026-06-18T23:17:26.562912,15.35056983,.0004192,53.1540,53.8731,123.2765,236.8639,0,U,45366,999,34527,.11362E-2,.39033E-3,0
STARLINK-1273,2020-019H,2026-06-19T07:16:35.876064,15.58500904,.00037957,53.0443,25.9684,102.1566,257.9871,0,U,45367,999,34567,.1088294E-2,.85042E-3,0
STARLINK-1277,2020-019K,2026-06-19T22:00:01.998720,15.67755665,.00014,53.0416,16.3707,95.2324,330.2077,0,U,45369,999,590,.37853E-2,.446378E-2,0
STARLINK-1281,2020-019L,2026-06-19T08:47:15.362592,15.35887860,.00044318,53.1559,51.5806,108.7983,251.3501,0,U,45370,999,34534,.11265535E-2,.39752E-3,0
STARLINK-1300,2020-019Q,2026-06-19T08:58:52.997664,15.36466944,.00040239,53.1576,51.4044,116.9794,243.1620,0,U,45374,999,34534,.64934347E-3,.23129E-3,0
STARLINK-1302,2020-019R,2026-06-18T20:37:32.322432,15.68413134,.00041423,53.0454,17.4174,102.3192,257.8288,0,U,45375,999,34575,.3677055E-3,.4188E-3,0
STARLINK-1304,2020-019S,2026-06-19T17:18:22.747968,15.64592050,.0003195,53.0415,14.8432,128.2106,231.9196,0,U,45376,999,34586,.41913E-3,.40923E-3,0
STARLINK-1305,2020-019T,2026-06-19T16:09:54.853920,15.72965646,.0002395,53.0393,352.8644,275.5779,84.4966,0,U,45377,999,34617,.36525E-3,.50449E-3,0
STARLINK-1319,2020-019V,2026-06-19T18:50:53.756160,15.79606100,.0001319,53.0373,343.4663,107.7901,252.3263,0,U,45379,999,34631,.50934E-3,.95242E-3,0
STARLINK-1266,2020-019Z,2026-06-19T17:13:14.299104,15.66944813,.0000651,53.0463,359.5896,258.3631,101.7311,0,U,45383,999,34607,.39244E-3,.42104E-3,0
STARLINK-1267,2020-019AA,2026-06-19T16:32:24.806400,15.66836506,.0004375,53.0443,350.9952,144.4254,215.7054,0,U,45384,999,34619,.1629E-2,.178807E-2,0
STARLINK-1272,2020-019AC,2026-06-19T20:47:26.662848,15.71214017,.0004789,53.0393,328.4884,128.5329,231.6118,0,U,45386,999,34652,.44751E-3,.57563E-3,0
STARLINK-1274,2020-019AD,2026-06-19T16:41:33.362592,15.64089737,.0006412,53.0211,329.1828,199.2905,160.7866,0,U,45387,999,34649,.89105E-3,.86432E-3,0
STARLINK-1280,2020-019AE,2026-06-19T22:00:01.998720,15.84976412,.000172,53.0351,334.6418,335.0178,252.5287,0,U,45388,999,599,.7686E-3,.187302E-2,0
STARLINK-1283,2020-019AF,2026-06-19T16:17:43.325952,15.73040363,.0001318,53.0402,328.3429,225.9425,134.1484,0,U,45389,999,34651,.41236E-3,.57262E-3,0
STARLINK-1284,2020-019AG,2026-06-19T17:01:36.186240,15.71308413,.0003237,53.0421,352.2223,62.6999,297.4348,0,U,45390,999,34617,.42367E-3,.54646E-3,0
STARLINK-1297,2020-019AM,2026-06-19T19:12:19.852128,15.71018718,.0001707,53.0418,350.9546,114.4549,245.6646,0,U,45395,999,34538,.19962E-2,.263072E-2,0
STARLINK-1307,2020-019AP,2026-06-19T16:31:47.980128,15.57483324,.0001204,53.0528,358.4511,159.5628,200.5431,0,U,45397,999,34591,.41342E-3,.30561E-3,0
STARLINK-1255,2020-019AR,2026-06-19T20:23:24.656352,15.66887592,.0002931,53.0348,324.7006,152.3152,207.8020,0,U,45399,999,34638,.42234E-3,.45273E-3,0
STARLINK-1260,2020-019AW,2026-06-19T17:03:35.102880,15.39049100,.0004322,53.1553,12.4166,132.0272,228.1101,0,U,45404,999,34563,.11638E-2,.45573E-3,0
STARLINK-1263,2020-019AX,2026-06-19T16:53:49.373088,15.36012845,.0002998,53.1575,13.9587,154.9011,205.2139,0,U,45405,999,34561,.1168E-2,.41399E-3,0
STARLINK-1265,2020-019AY,2026-06-19T16:49:03.467712,15.39371976,.0003168,53.1568,12.4271,121.6920,238.4393,0,U,45406,999,34563,.11636E-2,.46051E-3,0
STARLINK-1278,2020-019BA,2026-06-19T19:39:59.796576,15.72382483,.0002105,53.0393,349.7063,103.0559,257.0693,0,U,45408,999,34594,-.44382E-3,-.60353E-3,0
STARLINK-1296,2020-019BE,2026-06-19T17:44:01.447296,15.39556569,.0003751,53.1556,11.9205,115.4810,244.6583,0,U,45412,999,34564,.11112E-2,.4422E-3,0
STARLINK-1309,2020-019BG,2026-06-19T20:20:34.605600,15.70431636,.0001883,53.0608,343.6321,105.9128,254.2097,0,U,45414,999,34601,.39572E-2,.526039E-2,0
STARLINK-1316,2020-019BH,2026-06-19T16:56:12.556032,15.39872290,.0004249,53.1562,11.9838,121.2440,238.8981,0,U,45415,999,34566,.10789E-2,.43372E-3,0
STARLINK-1286,2020-019BK,2026-06-19T16:21:59.146848,15.65386592,.0002144,53.0469,356.2743,270.1858,89.8911,0,U,45417,999,34611,.50491E-3,.5107E-3,0
STARLINK-1308,2020-019BM,2026-06-18T20:48:37.377792,15.66838232,.00066735,53.0464,19.5467,79.1276,281.0490,0,U,45419,999,34546,.36875011E-3,.3938E-3,0
STARLINK-1329,2020-025A,2026-06-19T13:35:02.229792,15.74853356,.00014348,53.0417,299.1587,259.8465,100.2392,0,U,45531,999,34143,.41641094E-3,.62606E-3,0
