STARLINK-1301           
1 45361U 20019B   26170.81865538  .00103398  00000+0  47916-3 0  9994
2 45361  53.0353 317.4020 0002090 329.1977  30.8922 15.82679336346676
STARLINK-1262           
1 45366U 20019G   26169.97044633  .00039033  00000+0  11362-2 0  9998
2 45366  53.1540  53.8731 0004192 123.2765 236.8639 15.35056983345276
STARLINK-1273           
1 45367U 20019H   26170.30319301  .00085042  00000+0  10883-2 0  9993
2 45367  53.0443  25.9684 0003795 102.1566 257.9871 15.58500904345676
STARLINK-1277           
1 45369U 20019K   26170.91668980  .00446378  00000+0  37853-2 0  9991
2 45369  53.0416  16.3707 0001400  95.2324 330.2077 15.67755665  5901
STARLINK-1281           
1 45370U 20019L   26170.36615003  .00039752  00000+0  11266-2 0  9994
2 45370  53.1559  51.5806 0004431 108.7983 251.3501 15.35887860345349
STARLINK-1300           
1 45374U 20019Q   26170.37422451  .00023129  00000+0  64934-3 0  9994
2 45374  53.1576  51.4044 0004023 116.9794 243.1620 15.36466944345341
STARLINK-1302           
1 45375U 20019R   26169.85940188  .00041880  00000+0  36771-3 0  9990
2 45375  53.0454  17.4174 0004142 102.3192 257.8288 15.68413134345750
STARLINK-1304           
1 45376U 20019S   26170.72109662  .00040923  00000+0  41913-3 0  9994
2 45376  53.0415  14.8432 0003195 128.2106 231.9196 15.64592050345869
STARLINK-1305           
1 45377U 20019T   26170.67355155  .00050449  00000+0  36525-3 0  9996
2 45377  53.0393 352.8644 0002395 275.5779  84.4966 15.72965646346173
STARLINK-1319           
1 45379U 20019V   26170.78534440  .00095242  00000+0  50934-3 0  9996
2 45379  53.0373 343.4663 0001319 107.7901 252.3263 15.79606100346314
STARLINK-1266           
1 45383U 20019Z   26170.71752661  .00042104  00000+0  39244-3 0  9991
2 45383  53.0463 359.5896 0000651 258.3631 101.7311 15.66944813346072
STARLINK-1267           
1 45384U 20019AA  26170.68917600  .00178807  00000+0  16290-2 0  9999
2 45384  53.0443 350.9952 0004375 144.4254 215.7054 15.66836506346194
STARLINK-1272           
1 45386U 20019AC  26170.86628082  .00057563  00000+0  44751-3 0  9993
2 45386  53.0393 328.4884 0004789 128.5329 231.6118 15.71214017346527
STARLINK-1274           
1 45387U 20019AD  26170.69552503  .00086432  00000+0  89105-3 0  9998
2 45387  53.0211 329.1828 0006412 199.2905 160.7866 15.64089737346492
STARLINK-1280           
1 45388U 20019AE  26170.91668980  .00187302  00000+0  76860-3 0  9993
2 45388  53.0351 334.6418 0001720 335.0178 252.5287 15.84976412  5994
STARLINK-1283           
1 45389U 20019AF  26170.67897368  .00057262  00000+0  41236-3 0  9991
2 45389  53.0402 328.3429 0001318 225.9425 134.1484 15.73040363346514
STARLINK-1284           
1 45390U 20019AG  26170.70944660  .00054646  00000+0  42367-3 0  9994
2 45390  53.0421 352.2223 0003237  62.6999 297.4348 15.71308413346174
STARLINK-1297           
1 45395U 20019AM  26170.80022977  .00263072  00000+0  19962-2 0  9997
2 45395  53.0418 350.9546 0001707 114.4549 245.6646 15.71018718345389
STARLINK-1307           
1 45397U 20019AP  26170.68874977  .00030561  00000+0  41342-3 0  9993
2 45397  53.0528 358.4511 0001204 159.5628 200.5431 15.57483324345912
STARLINK-1255           
1 45399U 20019AR  26170.84959093  .00045273  00000+0  42234-3 0  9993
2 45399  53.0348 324.7006 0002931 152.3152 207.8020 15.66887592346381
STARLINK-1260           
1 45404U 20019AW  26170.71082295  .00045573  00000+0  11638-2 0  9993
2 45404  53.1553  12.4166 0004322 132.0272 228.1101 15.39049100345637
STARLINK-1263           
1 45405U 20019AX  26170.70404367  .00041399  00000+0  11680-2 0  9990
2 45405  53.1575  13.9587 0002998 154.9011 205.2139 15.36012845345614
STARLINK-1265           
1 45406U 20019AY  26170.70073458  .00046051  00000+0  11636-2 0  9995
2 45406  53.1568  12.4271 0003168 121.6920 238.4393 15.39371976345639
STARLINK-1278           
1 45408U 20019BA  26170.81944209 -.00060353  00000+0 -44382-3 0  9998
2 45408  53.0393 349.7063 0002105 103.0559 257.0693 15.72382483345949
STARLINK-1296           
1 45412U 20019BE  26170.73890564  .00044220  00000+0  11112-2 0  9995
2 45412  53.1556  11.9205 0003751 115.4810 244.6583 15.39556569345645
STARLINK-1309           
1 45414U 20019BG  26170.84762275  .00526039  00000+0  39572-2 0  9999
2 45414  53.0608 343.6321 0001883 105.9128 254.2097 15.70431636346019
STARLINK-1316           
1 45415U 20019BH  26170.70570088  .00043372  00000+0  10789-2 0  9997
2 45415  53.1562  11.9838 0004249 121.2440 238.8981 15.39872290345665
STARLINK-1286           
1 45417U 20019BK  26170.68193457  .00051070  00000+0  50491-3 0  9996
2 45417  53.0469 356.2743 0002144 270.1858  89.8911 15.65386592346113
STARLINK-1308           
1 45419U 20019BM  26169.86709928  .00039380  00000+0  36875-3 0  9992
2 45419  53.0464  19.5467 0006673  79.1276 281.0490 15.66838232345463
STARLINK-1329           
1 45531U 20025A   26170.56599803  .00062606  00000+0  41641-3 0  9996
2 45531  53.0417 299.1587 0001434 259.8465 100.2392 15.74853356341431
